     You deal with the Satellite      310594  stac    
      Middle Elements of Orbit :
         Epoch           49503.8382796
     Argument of Perigei  -134.5874638      .0365407
     the Ascending Node    -92.2544417     -.0182425
     Inclination             1.3548007
     Eccentricity             .000057899
     Mean Anomaly             .372955254
     Mean Motion             1.002732614    0.00E+00
